start=new Date('2022-04-30T00:00:00.000Z').valueOf();
sats=[{"OBJECT_TYPE":"PAYLOAD","RA_OF_ASC_NODE":"67.8294","MEAN_ANOMALY":"118.3537","ELEMENT_SET_NO":"999","REV_AT_EPOCH":"356","EPHEMERIS_TYPE":"0","TIME_SYSTEM":"UTC","ARG_OF_PERICENTER":"34.4832","PERIAPSIS":"537.784","SEMIMAJOR_AXIS":"6917.917","GP_ID":"202312151","MEAN_ELEMENT_THEORY":"SGP4","LAUNCH_DATE":"2021-11-13","OBJECT_NAME":"STARLINK-3160","CLASSIFICATION_TYPE":"U","FILE":"3421985","TLE_LINE2":"2 49454  53.2195  67.8294 0002888  34.4832 118.3537 15.08827932  3566","SITE":"AFETR","PERIOD":"95.438","MEAN_MOTION_DDOT":"0.0000000000000","COUNTRY_CODE":"US","OBJECT_ID":"2021-104AY","REF_FRAME":"TEME","ECCENTRICITY":"0.00028880","BSTAR":"0.00063515000000","EPOCH":"2022-04-29T22:00:00.999936","RCS_SIZE":"LARGE","CENTER_NAME":"EARTH","APOAPSIS":"541.780","MEAN_MOTION_DOT":"0.00009832","TLE_LINE1":"1 49454U 21104AY  22119.91667824  .00009832  00000-0  63515-3 0  9997","INCLINATION":"53.2195","MEAN_MOTION":"15.08827932","DECAY_DATE":null,"NORAD_CAT_ID":"49454"},{"FILE":"3421985","MEAN_MOTION_DDOT":"0.0000000000000","SITE":"AFETR","TLE_LINE2":"2 49455  53.2180  67.8214 0001985  35.9047 196.9365 15.08826660  3562","PERIOD":"95.438","COUNTRY_CODE":"US","OBJECT_ID":"2021-104AZ","EPOCH":"2022-04-29T22:00:00.999936","BSTAR":"-0.00005457800000","REF_FRAME":"TEME","ECCENTRICITY":"0.00019850","APOAPSIS":"541.159","RCS_SIZE":"LARGE","CENTER_NAME":"EARTH","MEAN_MOTION_DOT":"-0.00001156","TLE_LINE1":"1 49455U 21104AZ  22119.91667824 -.00001156  00000-0 -54578-4 0  9991","MEAN_MOTION":"15.08826660","INCLINATION":"53.2180","NORAD_CAT_ID":"49455","DECAY_DATE":null,"OBJECT_TYPE":"PAYLOAD","RA_OF_ASC_NODE":"67.8214","ELEMENT_SET_NO":"999","MEAN_ANOMALY":"196.9365","EPHEMERIS_TYPE":"0","TIME_SYSTEM":"UTC","REV_AT_EPOCH":"356","PERIAPSIS":"538.413","ARG_OF_PERICENTER":"35.9047","GP_ID":"202312895","SEMIMAJOR_AXIS":"6917.921","CLASSIFICATION_TYPE":"U","MEAN_ELEMENT_THEORY":"SGP4","LAUNCH_DATE":"2021-11-13","OBJECT_NAME":"STARLINK-3145"},{"PERIOD":"95.437","TLE_LINE2":"2 49456  53.2200  67.8284 0002693  35.0514 157.7721 15.08847098  3569","SITE":"AFETR","MEAN_MOTION_DDOT":"0.0000000000000","FILE":"3421985","ECCENTRICITY":"0.00026930","REF_FRAME":"TEME","BSTAR":"-0.00240260000000","EPOCH":"2022-04-29T22:00:00.999936","OBJECT_ID":"2021-104BA","COUNTRY_CODE":"US","TLE_LINE1":"1 49456U 21104BA  22119.91667824 -.00038333  00000-0 -24026-2 0  9992","MEAN_MOTION_DOT":"-0.00038333","CENTER_NAME":"EARTH","RCS_SIZE":"LARGE","APOAPSIS":"541.587","DECAY_DATE":null,"NORAD_CAT_ID":"49456","INCLINATION":"53.2200","MEAN_MOTION":"15.08847098","OBJECT_TYPE":"PAYLOAD","RA_OF_ASC_NODE":"67.8284","REV_AT_EPOCH":"356","EPHEMERIS_TYPE":"0","TIME_SYSTEM":"UTC","MEAN_ANOMALY":"157.7721","ELEMENT_SET_NO":"999","GP_ID":"202311643","SEMIMAJOR_AXIS":"6917.859","ARG_OF_PERICENTER":"35.0514","PERIAPSIS":"537.861","OBJECT_NAME":"STARLINK-3124","LAUNCH_DATE":"2021-11-13","MEAN_ELEMENT_THEORY":"SGP4","CLASSIFICATION_TYPE":"U"},{"MEAN_MOTION_DDOT":"0.0000000000000","PERIOD":"95.438","TLE_LINE2":"2 49457  53.2186  67.8241 0002143  35.7929 217.0374 15.08829636  3565","SITE":"AFETR","FILE":"3421985","EPOCH":"2022-04-29T22:00:00.999936","BSTAR":"-0.00005991300000","ECCENTRICITY":"0.00021430","REF_FRAME":"TEME","OBJECT_ID":"2021-104BB","COUNTRY_CODE":"US","TLE_LINE1":"1 49457U 21104BB  22119.91667824 -.00001241  00000-0 -59913-4 0  9996","MEAN_MOTION_DOT":"-0.00001241","APOAPSIS":"541.260","CENTER_NAME":"EARTH","RCS_SIZE":"LARGE","DECAY_DATE":null,"NORAD_CAT_ID":"49457","MEAN_MOTION":"15.08829636","INCLINATION":"53.2186","RA_OF_ASC_NODE":"67.8241","OBJECT_TYPE":"PAYLOAD","TIME_SYSTEM":"UTC","EPHEMERIS_TYPE":"0","REV_AT_EPOCH":"356","ELEMENT_SET_NO":"999","MEAN_ANOMALY":"217.0374","SEMIMAJOR_AXIS":"6917.912","GP_ID":"202311893","PERIAPSIS":"538.295","ARG_OF_PERICENTER":"35.7929","CLASSIFICATION_TYPE":"U","LAUNCH_DATE":"2021-11-13","OBJECT_NAME":"STARLINK-3132","MEAN_ELEMENT_THEORY":"SGP4"},{"RCS_SIZE":"LARGE","CENTER_NAME":"EARTH","APOAPSIS":"541.519","TLE_LINE1":"1 49458U 21104BC  22119.91667824  .00010598  00000-0  68319-3 0  9999","MEAN_MOTION_DOT":"0.00010598","INCLINATION":"53.2186","MEAN_MOTION":"15.08826549","DECAY_DATE":null,"NORAD_CAT_ID":"49458","FILE":"3421985","PERIOD":"95.438","TLE_LINE2":"2 49458  53.2186  67.8229 0002504  28.6914 184.1336 15.08826549  3560","SITE":"AFETR","MEAN_MOTION_DDOT":"0.0000000000000","OBJECT_ID":"2021-104BC","COUNTRY_CODE":"US","ECCENTRICITY":"0.00025040","REF_FRAME":"TEME","BSTAR":"0.00068319000000","EPOCH":"2022-04-29T22:00:00.999936","ARG_OF_PERICENTER":"28.6914","PERIAPSIS":"538.054","SEMIMAJOR_AXIS":"6917.922","GP_ID":"202312645","LAUNCH_DATE":"2021-11-13","OBJECT_NAME":"STARLINK-3156","MEAN_ELEMENT_THEORY":"SGP4","CLASSIFICATION_TYPE":"U","RA_OF_ASC_NODE":"67.8229","OBJECT_TYPE":"PAYLOAD","MEAN_ANOMALY":"184.1336","ELEMENT_SET_NO":"999","REV_AT_EPOCH":"356","TIME_SYSTEM":"UTC","EPHEMERIS_TYPE":"0"},{"MEAN_MOTION":"15.08828776","INCLINATION":"53.2190","DECAY_DATE":null,"NORAD_CAT_ID":"49459","APOAPSIS":"541.430","CENTER_NAME":"EARTH","RCS_SIZE":"LARGE","MEAN_MOTION_DOT":"0.00000536","TLE_LINE1":"1 49459U 21104BD  22119.91667824  .00000536  00000-0  51790-4 0  9997","COUNTRY_CODE":"US","OBJECT_ID":"2021-104BD","EPOCH":"2022-04-29T22:00:00.999936","BSTAR":"0.00005179000000","REF_FRAME":"TEME","ECCENTRICITY":"0.00023860","FILE":"3421985","MEAN_MOTION_DDOT":"0.0000000000000","SITE":"AFETR","TLE_LINE2":"2 49459  53.2190  67.8258 0002386  29.2758 243.5604 15.08828776  3606","PERIOD":"95.438","CLASSIFICATION_TYPE":"U","MEAN_ELEMENT_THEORY":"SGP4","LAUNCH_DATE":"2021-11-13","OBJECT_NAME":"STARLINK-3141","PERIAPSIS":"538.129","ARG_OF_PERICENTER":"29.2758","SEMIMAJOR_AXIS":"6917.915","GP_ID":"202312402","ELEMENT_SET_NO":"999","MEAN_ANOMALY":"243.5604","EPHEMERIS_TYPE":"0","TIME_SYSTEM":"UTC","REV_AT_EPOCH":"360","RA_OF_ASC_NODE":"67.8258","OBJECT_TYPE":"PAYLOAD"},{"NORAD_CAT_ID":"49460","DECAY_DATE":null,"MEAN_MOTION":"15.08841520","INCLINATION":"53.2179","TLE_LINE1":"1 49460U 21104BE  22119.91667824 -.00040552  00000-0 -25440-2 0  9994","MEAN_MOTION_DOT":"-0.00040552","APOAPSIS":"541.479","RCS_SIZE":"LARGE","CENTER_NAME":"EARTH","BSTAR":"-0.00254400000000","EPOCH":"2022-04-29T22:00:00.999936","ECCENTRICITY":"0.00025120","REF_FRAME":"TEME","OBJECT_ID":"2021-104BE","COUNTRY_CODE":"US","MEAN_MOTION_DDOT":"0.0000000000000","PERIOD":"95.437","TLE_LINE2":"2 49460  53.2179  67.8455 0002512  34.2263 258.6088 15.08841520  3595","SITE":"AFETR","FILE":"3421985","CLASSIFICATION_TYPE":"U","OBJECT_NAME":"STARLINK-3140","LAUNCH_DATE":"2021-11-13","MEAN_ELEMENT_THEORY":"SGP4","GP_ID":"202311150","SEMIMAJOR_AXIS":"6917.876","PERIAPSIS":"538.003","ARG_OF_PERICENTER":"34.2263","EPHEMERIS_TYPE":"0","TIME_SYSTEM":"UTC","REV_AT_EPOCH":"359","ELEMENT_SET_NO":"999","MEAN_ANOMALY":"258.6088","OBJECT_TYPE":"PAYLOAD","RA_OF_ASC_NODE":"67.8455"},{"FILE":"3421985","TLE_LINE2":"2 49724  53.2129 357.8488 0001824  43.6475 348.9796 15.08834412  3574","SITE":"AFETR","PERIOD":"95.438","MEAN_MOTION_DDOT":"0.0000000000000","COUNTRY_CODE":"US","OBJECT_ID":"2021-115A","REF_FRAME":"TEME","ECCENTRICITY":"0.00018240","BSTAR":"-0.00260140000000","EPOCH":"2022-04-29T22:00:00.999936","RCS_SIZE":"LARGE","CENTER_NAME":"EARTH","APOAPSIS":"541.024","MEAN_MOTION_DOT":"-0.00041446","TLE_LINE1":"1 49724U 21115A   22119.91667824 -.00041446  00000-0 -26014-2 0  9990","INCLINATION":"53.2129","MEAN_MOTION":"15.08834412","DECAY_DATE":null,"NORAD_CAT_ID":"49724","OBJECT_TYPE":"PAYLOAD","RA_OF_ASC_NODE":"357.8488","MEAN_ANOMALY":"348.9796","ELEMENT_SET_NO":"999","REV_AT_EPOCH":"357","EPHEMERIS_TYPE":"0","TIME_SYSTEM":"UTC","ARG_OF_PERICENTER":"43.6475","PERIAPSIS":"538.501","SEMIMAJOR_AXIS":"6917.897","GP_ID":"202311420","MEAN_ELEMENT_THEORY":"SGP4","LAUNCH_DATE":"2021-12-02","OBJECT_NAME":"STARLINK-3219","CLASSIFICATION_TYPE":"U"},{"DECAY_DATE":null,"NORAD_CAT_ID":"49725","INCLINATION":"53.2195","MEAN_MOTION":"15.08826930","MEAN_MOTION_DOT":"-0.00017826","TLE_LINE1":"1 49725U 21115B   22119.91667824 -.00017826  00000-0 -11050-2 0  9990","CENTER_NAME":"EARTH","RCS_SIZE":"LARGE","APOAPSIS":"541.426","REF_FRAME":"TEME","ECCENTRICITY":"0.00023710","EPOCH":"2022-04-29T22:00:00.999936","BSTAR":"-0.00110500000000","COUNTRY_CODE":"US","OBJECT_ID":"2021-115B","SITE":"AFETR","TLE_LINE2":"2 49725  53.2195 357.8309 0002371  30.9300 181.7144 15.08826930  3569","PERIOD":"95.438","MEAN_MOTION_DDOT":"0.0000000000000","FILE":"3421985","MEAN_ELEMENT_THEORY":"SGP4","LAUNCH_DATE":"2021-12-02","OBJECT_NAME":"STARLINK-3218","CLASSIFICATION_TYPE":"U","SEMIMAJOR_AXIS":"6917.920","GP_ID":"202312172","ARG_OF_PERICENTER":"30.9300","PERIAPSIS":"538.145","REV_AT_EPOCH":"356","EPHEMERIS_TYPE":"0","TIME_SYSTEM":"UTC","MEAN_ANOMALY":"181.7144","ELEMENT_SET_NO":"999","OBJECT_TYPE":"PAYLOAD","RA_OF_ASC_NODE":"357.8309"},{"OBJECT_TYPE":"PAYLOAD","RA_OF_ASC_NODE":"7.8395","EPHEMERIS_TYPE":"0","TIME_SYSTEM":"UTC","REV_AT_EPOCH":"357","ELEMENT_SET_NO":"999","MEAN_ANOMALY":"17.8564","SEMIMAJOR_AXIS":"6917.934","GP_ID":"202312916","PERIAPSIS":"538.451","ARG_OF_PERICENTER":"44.9751","CLASSIFICATION_TYPE":"U","LAUNCH_DATE":"2021-12-02","OBJECT_NAME":"STARLINK-3237","MEAN_ELEMENT_THEORY":"SGP4","MEAN_MOTION_DDOT":"0.0000000000000","PERIOD":"95.439","SITE":"AFETR","TLE_LINE2":"2 49726  53.2196   7.8395 0001949  44.9751  17.8564 15.08822506  3574","FILE":"3421985","EPOCH":"2022-04-29T22:00:00.999936","BSTAR":"-0.00019937000000","ECCENTRICITY":"0.00019490","REF_FRAME":"TEME","OBJECT_ID":"2021-115C","COUNTRY_CODE":"US","TLE_LINE1":"1 49726U 21115C   22119.91667824 -.00003458  00000-0 -19937-3 0  9990","MEAN_MOTION_DOT":"-0.00003458","APOAPSIS":"541.147","RCS_SIZE":"LARGE","CENTER_NAME":"EARTH","DECAY_DATE":null,"NORAD_CAT_ID":"49726","MEAN_MOTION":"15.08822506","INCLINATION":"53.2196"}];
